LANDSAT 9               
1 49260U 21088A   23185.19233748  .00000354  00000+0  88611-4 0  9995
2 49260  98.2292 254.8783 0001155  94.8929 265.2401 14.57098111 93868
